{"type": "FeatureCollection", "features": [{"type": "Feature", "properties": {"norad_id": 22490, "name": "SCD 1", "group": "resource", "lat": -19.258537045414545, "lon": 162.7734063156628, "alt_km": 727.2180742720902, "timestamp": "2025-12-10T05:46:13.453420+00:00", "meta": {"OBJECT_NAME": "SCD 1", "OBJECT_ID": "1993-009B", "EPOCH": "2025-12-09T14:32:21.488928", "MEAN_MOTION": 14.45995775, "ECCENTRICITY": 0.004173, "INCLINATION": 24.9704, "RA_OF_ASC_NODE": 298.0332, "ARG_OF_PERICENTER": 291.7211, "MEAN_ANOMALY": 229.7743, "EPHEMERIS_TYPE": 0, "CLASSIFICATION_TYPE": "U", "NORAD_CAT_ID": 22490, "ELEMENT_SET_NO": 999, "REV_AT_EPOCH": 73364, "BSTAR": 0.00017156, "MEAN_MOTION_DOT": 8.13e-06, "MEAN_MOTION_DDOT": 0}, "tle": {"line1": "1 22490U 93009B   25343.60580427  .00000813  00000+0  17156-3 0  9991", "line2": "2 22490  24.9704 298.0332 0041730 291.7211 229.7743 14.45995775733643"}}, "geometry": {"type": "Point", "coordinates": [162.7734063156628, -19.258537045414545]}}, {"type": "Feature", "properties": {"norad_id": 25397, "name": "TECHSAT 1B (GO-32)", "group": "resource", "lat": -39.085090006095605, "lon": -25.215954855741987, "alt_km": 817.2775506422313, "timestamp": "2025-12-10T05:46:13.453448+00:00", "meta": {"OBJECT_NAME": "TECHSAT 1B (GO-32)", "OBJECT_ID": "1998-043D", "EPOCH": "2025-12-09T16:28:08.761728", "MEAN_MOTION": 14.24375772, "ECCENTRICITY": 0.0002137, "INCLINATION": 98.9917, "RA_OF_ASC_NODE": 326.8279, "ARG_OF_PERICENTER": 62.2471, "MEAN_ANOMALY": 297.8923, "EPHEMERIS_TYPE": 0, "CLASSIFICATION_TYPE": "U", "NORAD_CAT_ID": 25397, "ELEMENT_SET_NO": 999, "REV_AT_EPOCH": 42435, "BSTAR": 0.00010194, "MEAN_MOTION_DOT": 1.89e-06, "MEAN_MOTION_DDOT": 0}, "tle": {"line1": "1 25397U 98043D   25343.68621252  .00000189  00000+0  10194-3 0  9994", "line2": "2 25397  98.9917 326.8279 0002137  62.2471 297.8923 14.24375772424353"}}, "geometry": {"type": "Point", "coordinates": [-25.215954855741987, -39.085090006095605]}}, {"type": "Feature", "properties": {"norad_id": 25504, "name": "SCD 2", "group": "resource", "lat": -24.975175415769503, "lon": 66.26542893583006, "alt_km": 730.0193316283394, "timestamp": "2025-12-10T05:46:13.453463+00:00", "meta": {"OBJECT_NAME": "SCD 2", "OBJECT_ID": "1998-060A", "EPOCH": "2025-12-09T18:41:38.027040", "MEAN_MOTION": 14.45420959, "ECCENTRICITY": 0.0016592, "INCLINATION": 24.9931, "RA_OF_ASC_NODE": 160.1538, "ARG_OF_PERICENTER": 281.9313, "MEAN_ANOMALY": 100.7711, "EPHEMERIS_TYPE": 0, "CLASSIFICATION_TYPE": "U", "NORAD_CAT_ID": 25504, "ELEMENT_SET_NO": 999, "REV_AT_EPOCH": 43289, "BSTAR": 0.0001259, "MEAN_MOTION_DOT": 6.33e-06, "MEAN_MOTION_DDOT": 0}, "tle": {"line1": "1 25504U 98060A   25343.77891235  .00000633  00000+0  12590-3 0  9999", "line2": "2 25504  24.9931 160.1538 0016592 281.9313 100.7711 14.45420959432896"}}, "geometry": {"type": "Point", "coordinates": [66.26542893583006, -24.975175415769503]}}, {"type": "Feature", "properties": {"norad_id": 25757, "name": "DLR-TUBSAT", "group": "resource", "lat": -70.50162011298681, "lon": -5.841331778032207, "alt_km": 724.6947455443978, "timestamp": "2025-12-10T05:46:13.453475+00:00", "meta": {"OBJECT_NAME": "DLR-TUBSAT", "OBJECT_ID": "1999-029B", "EPOCH": "2025-12-09T16:52:35.211648", "MEAN_MOTION": 14.52355963, "ECCENTRICITY": 0.0013728, "INCLINATION": 98.656, "RA_OF_ASC_NODE": 328.1233, "ARG_OF_PERICENTER": 202.2533, "MEAN_ANOMALY": 157.8067, "EPHEMERIS_TYPE": 0, "CLASSIFICATION_TYPE": "U", "NORAD_CAT_ID": 25757, "ELEMENT_SET_NO": 999, "REV_AT_EPOCH": 40574, "BSTAR": 8.0486e-05, "MEAN_MOTION_DOT": 2.8e-06, "MEAN_MOTION_DDOT": 0}, "tle": {"line1": "1 25757U 99029B   25343.70318532  .00000280  00000+0  80486-4 0  9990", "line2": "2 25757  98.6560 328.1233 0013728 202.2533 157.8067 14.52355963405749"}}, "geometry": {"type": "Point", "coordinates": [-5.841331778032207, -70.50162011298681]}}, {"type": "Feature", "properties": {"norad_id": 25994, "name": "TERRA", "group": "resource", "lat": -81.08086648208933, "lon": 99.30716684986476, "alt_km": 700.1535720088486, "timestamp": "2025-12-10T05:46:13.453487+00:00", "meta": {"OBJECT_NAME": "TERRA", "OBJECT_ID": "1999-068A", "EPOCH": "2025-12-09T19:09:34.428096", "MEAN_MOTION": 14.60897092, "ECCENTRICITY": 0.0003584, "INCLINATION": 97.9752, "RA_OF_ASC_NODE": 35.5908, "ARG_OF_PERICENTER": 100.1248, "MEAN_ANOMALY": 10.0634, "EPHEMERIS_TYPE": 0, "CLASSIFICATION_TYPE": "U", "NORAD_CAT_ID": 25994, "ELEMENT_SET_NO": 999, "REV_AT_EPOCH": 38195, "BSTAR": 0.00017702, "MEAN_MOTION_DOT": 8.22e-06, "MEAN_MOTION_DDOT": 0}, "tle": {"line1": "1 25994U 99068A   25343.79831514  .00000822  00000+0  17702-3 0  9997", "line2": "2 25994  97.9752  35.5908 0003584 100.1248  10.0634 14.60897092381952"}}, "geometry": {"type": "Point", "coordinates": [99.30716684986476, -81.08086648208933]}}, {"type": "Feature", "properties": {"norad_id": 27004, "name": "MAROC-TUBSAT", "group": "resource", "lat": -2.9340966521092198, "lon": 153.14849424195992, "alt_km": 1001.8948412032778, "timestamp": "2025-12-10T05:46:13.453498+00:00", "meta": {"OBJECT_NAME": "MAROC-TUBSAT", "OBJECT_ID": "2001-056D", "EPOCH": "2025-12-09T17:38:08.402208", "MEAN_MOTION": 13.70252674, "ECCENTRICITY": 0.0019088, "INCLINATION": 99.7912, "RA_OF_ASC_NODE": 152.1272, "ARG_OF_PERICENTER": 268.1363, "MEAN_ANOMALY": 115.929, "EPHEMERIS_TYPE": 0, "CLASSIFICATION_TYPE": "U", "NORAD_CAT_ID": 27004, "ELEMENT_SET_NO": 999, "REV_AT_EPOCH": 20024, "BSTAR": 4.6196e-05, "MEAN_MOTION_DOT": -6e-08, "MEAN_MOTION_DDOT": 0}, "tle": {"line1": "1 27004U 01056D   25343.73481947 -.00000006  00000+0  46196-4 0  9991", "line2": "2 27004  99.7912 152.1272 0019088 268.1363 115.9290 13.70252674200249"}}, "geometry": {"type": "Point", "coordinates": [153.14849424195992, -2.9340966521092198]}}, {"type": "Feature", "properties": {"norad_id": 27424, "name": "AQUA", "group": "resource", "lat": 38.5622272875279, "lon": 131.84679854531984, "alt_km": 683.8629521923795, "timestamp": "2025-12-10T05:46:13.453509+00:00", "meta": {"OBJECT_NAME": "AQUA", "OBJECT_ID": "2002-022A", "EPOCH": "2025-12-09T21:02:12.331104", "MEAN_MOTION": 14.61799118, "ECCENTRICITY": 9.79e-05, "INCLINATION": 98.4034, "RA_OF_ASC_NODE": 304.7091, "ARG_OF_PERICENTER": 114.1879, "MEAN_ANOMALY": 272.7648, "EPHEMERIS_TYPE": 0, "CLASSIFICATION_TYPE": "U", "NORAD_CAT_ID": 27424, "ELEMENT_SET_NO": 999, "REV_AT_EPOCH": 25561, "BSTAR": 0.0003959, "MEAN_MOTION_DOT": 1.927e-05, "MEAN_MOTION_DDOT": 0}, "tle": {"line1": "1 27424U 02022A   25343.87653161  .00001927  00000+0  39590-3 0  9996", "line2": "2 27424  98.4034 304.7091 0000979 114.1879 272.7648 14.61799118255611"}}, "geometry": {"type": "Point", "coordinates": [131.84679854531984, 38.5622272875279]}}, {"type": "Feature", "properties": {"norad_id": 28051, "name": "IRS-P6 (RESOURCESAT-1)", "group": "resource", "lat": -56.24810856760751, "lon": -167.72650520427996, "alt_km": 748.3103053686937, "timestamp": "2025-12-10T05:46:13.453520+00:00", "meta": {"OBJECT_NAME": "IRS-P6 (RESOURCESAT-1)", "OBJECT_ID": "2003-046A", "EPOCH": "2025-12-09T21:06:52.126272", "MEAN_MOTION": 14.36072391, "ECCENTRICITY": 0.0063953, "INCLINATION": 98.2176, "RA_OF_ASC_NODE": 24.4189, "ARG_OF_PERICENTER": 189.2833, "MEAN_ANOMALY": 343.7471, "EPHEMERIS_TYPE": 0, "CLASSIFICATION_TYPE": "U", "NORAD_CAT_ID": 28051, "ELEMENT_SET_NO": 999, "REV_AT_EPOCH": 15335, "BSTAR": 6.7267e-05, "MEAN_MOTION_DOT": 1.59e-06, "MEAN_MOTION_DDOT": 0}, "tle": {"line1": "1 28051U 03046A   25343.87976998  .00000159  00000+0  67267-4 0  9995", "line2": "2 28051  98.2176  24.4189 0063953 189.2833 343.7471 14.36072391153351"}}, "geometry": {"type": "Point", "coordinates": [-167.72650520427996, -56.24810856760751]}}, {"type": "Feature", "properties": {"norad_id": 28220, "name": "SHIYAN-1 (SY-1)", "group": "resource", "lat": 3.2771064270786257, "lon": 45.175847212174695, "alt_km": 480.78287321587595, "timestamp": "2025-12-10T05:46:13.453532+00:00", "meta": {"OBJECT_NAME": "SHIYAN-1 (SY-1)", "OBJECT_ID": "2004-012A", "EPOCH": "2025-12-09T10:53:45.983616", "MEAN_MOTION": 15.28007061, "ECCENTRICITY": 0.00058493, "INCLINATION": 97.8933, "RA_OF_ASC_NODE": 44.7984, "ARG_OF_PERICENTER": 338.3085, "MEAN_ANOMALY": 21.7905, "EPHEMERIS_TYPE": 0, "CLASSIFICATION_TYPE": "U", "NORAD_CAT_ID": 28220, "ELEMENT_SET_NO": 999, "REV_AT_EPOCH": 18206, "BSTAR": 0.00068257487, "MEAN_MOTION_DOT": 0.00018604, "MEAN_MOTION_DDOT": 0}, "tle": {"line1": "1 28220U 04012A   25343.45400444  .00018604  00000+0  68257-3 0  9992", "line2": "2 28220  97.8933  44.7984 0005849 338.3085  21.7905 15.28007061182068"}}, "geometry": {"type": "Point", "coordinates": [45.175847212174695, 3.2771064270786257]}}, {"type": "Feature", "properties": {"norad_id": 28376, "name": "AURA", "group": "resource", "lat": -77.10723335740032, "lon": -25.814994846631304, "alt_km": 698.3029138880102, "timestamp": "2025-12-10T05:46:13.453542+00:00", "meta": {"OBJECT_NAME": "AURA", "OBJECT_ID": "2004-026A", "EPOCH": "2025-12-09T20:16:27.130944", "MEAN_MOTION": 14.60936693, "ECCENTRICITY": 0.0001189, "INCLINATION": 98.3181, "RA_OF_ASC_NODE": 294.0579, "ARG_OF_PERICENTER": 93.6887, "MEAN_ANOMALY": 266.4449, "EPHEMERIS_TYPE": 0, "CLASSIFICATION_TYPE": "U", "NORAD_CAT_ID": 28376, "ELEMENT_SET_NO": 999, "REV_AT_EPOCH": 13856, "BSTAR": 0.00039943, "MEAN_MOTION_DOT": 1.909e-05, "MEAN_MOTION_DDOT": 0}, "tle": {"line1": "1 28376U 04026A   25343.84475846  .00001909  00000+0  39943-3 0  9990", "line2": "2 28376  98.3181 294.0579 0001189  93.6887 266.4449 14.60936693138569"}}, "geometry": {"type": "Point", "coordinates": [-25.814994846631304, -77.10723335740032]}}]}